[{"OBJECT_NAME":"GEESAT-1 06","OBJECT_ID":"2022-058F","EPOCH":"2026-03-09T21:42:30.443328","MEAN_MOTION":14.8101583,"ECCENTRICITY":0.00346377,"INCLINATION":50.0048,"RA_OF_ASC_NODE":301.1801,"ARG_OF_PERICENTER":126.8919,"MEAN_ANOMALY":233.5201,"EPHEMERIS_TYPE":0,"CLASSIFICATION_TYPE":"U","NORAD_CAT_ID":52790,"ELEMENT_SET_NO":999,"REV_AT_EPOCH":20521,"BSTAR":0.00037629546,"MEAN_MOTION_DOT":2.747e-5,"MEAN_MOTION_DDOT":0},{"OBJECT_NAME":"KUIPER-00065","OBJECT_ID":"2025-134AB","EPOCH":"2026-03-09T16:33:07.968384","MEAN_MOTION":14.799424,"ECCENTRICITY":7.199e-5,"INCLINATION":51.9035,"RA_OF_ASC_NODE":240.6799,"ARG_OF_PERICENTER":80.086,"MEAN_ANOMALY":280.0184,"EPHEMERIS_TYPE":0,"CLASSIFICATION_TYPE":"U","NORAD_CAT_ID":64525,"ELEMENT_SET_NO":999,"REV_AT_EPOCH":3995,"BSTAR":0.00062633885,"MEAN_MOTION_DOT":4.558e-5,"MEAN_MOTION_DDOT":0}]
